[{"OBJECT_NAME":"STARLINK-34841","OBJECT_ID":"2025-176L","EPOCH":"2026-03-09T12:32:14.938368","MEAN_MOTION":15.30194917,"ECCENTRICITY":0.00013313,"INCLINATION":53.1573,"RA_OF_ASC_NODE":153.594,"ARG_OF_PERICENTER":48.47,"MEAN_ANOMALY":311.6415,"EPHEMERIS_TYPE":0,"CLASSIFICATION_TYPE":"U","NORAD_CAT_ID":65208,"ELEMENT_SET_NO":999,"REV_AT_EPOCH":3309,"BSTAR":0.0008395668,"MEAN_MOTION_DOT":0.00024585,"MEAN_MOTION_DDOT":0},{"OBJECT_NAME":"OBJECT BC","OBJECT_ID":"2025-313BC","EPOCH":"2026-03-09T04:33:08.504064","MEAN_MOTION":15.29126358,"ECCENTRICITY":0.00084789,"INCLINATION":97.3985,"RA_OF_ASC_NODE":144.811,"ARG_OF_PERICENTER":328.9209,"MEAN_ANOMALY":31.1528,"EPHEMERIS_TYPE":0,"CLASSIFICATION_TYPE":"U","NORAD_CAT_ID":67298,"ELEMENT_SET_NO":999,"REV_AT_EPOCH":789,"BSTAR":0.0026410397,"MEAN_MOTION_DOT":0.00075331,"MEAN_MOTION_DDOT":0}]
