STARLINK-34841          
1 65208U 25176L   26068.52239512  .00024585  00000+0  83957-3 0  9991
2 65208  53.1573 153.5940 0001331  48.4700 311.6415 15.30194917 33091
2025-313BC              
1 67298U 25313BC  26068.18968176  .00075331  00000+0  26410-2 0  9997
2 67298  97.3985 144.8110 0008478 328.9209  31.1528 15.29126358  7890
